STARLINK-5558           
1 55631U 23021D   26068.71082484  .00001332  00000+0  11942-3 0  9992
2 55631  70.0002 204.3096 0003213 267.5398  92.5393 14.98328248168302
HAWK-9B                 
1 59450U 24066J   26068.43130858  .00002608  00000+0  23214-3 0  9995
2 59450  45.6215  73.5456 0003751 229.3903 130.6652 14.98778240104864
